NORAD_CAT_ID,OBJECT_NAME,OBJECT_TYPE,EPOCH,MEAN_MOTION,ECCENTRICITY,INCLINATION,RA_OF_ASC_NODE,ARG_OF_PERICENTER,MEAN_ANOMALY,BSTAR,MEAN_MOTION_DOT,MEAN_MOTION_DDOT,TLE_LINE0,TLE_LINE1,TLE_LINE2,SEMIMAJOR_AXIS,PERIOD,APOGEE,PERIGEE,DECAYED
52000.0,STARLINK-3653,PAYLOAD,2022-09-01 22:00:00,15.08825902,0.0001281,53.2197,26.6836,62.1195,32.5205,0.0014831,0.00023385,0.0,0 STARLINK-3653,1 52000U 22025AW  22244.91667824  .00023385  00000-0  14831-2 0  9995,2 52000  53.2197  26.6836 0001281  62.1195  32.5205 15.08825902  1304,6917.9230000000025,95.438,540.675,538.9019999999998,0.0
52000.0,STARLINK-3653,PAYLOAD,2022-09-02 04:00:00,15.0882641,0.0001189999999999,53.2198,25.56,72.7149,300.6167,0.00071386,0.00011087,0.0,0 STARLINK-3653,1 52000U 22025AW  22245.16667824  .00011087  00000-0  71386-3 0  9998,2 52000  53.2198  25.5600 0001190  72.7149 300.6167 15.08826410 28532,6917.922,95.438,540.61,538.964,0.0
52000.0,STARLINK-3653,PAYLOAD,2022-09-02 14:00:01,15.08854387,0.0001249,53.2197,23.6907,70.2145,47.5991,-0.0016952,-0.00027176,0.0,0 STARLINK-3653,1 52000U 22025AW  22245.58334491 -.00027176  00000-0 -16952-2 0  9990,2 52000  53.2197  23.6907 0001249  70.2145  47.5991 15.08854387  1306,6917.8359999999975,95.437,540.565,538.837,0.0
52000.0,STARLINK-3653,PAYLOAD,2022-09-02 22:00:01,15.08843071,0.000127,53.2192,22.1948,62.7426,66.7351,0.00092218,0.0001441999999999,0.0,0 STARLINK-3653,1 52000U 22025AW  22245.91668981  .00014420  00000-0  92218-3 0  9997,2 52000  53.2192  22.1948 0001270  62.7426  66.7351 15.08843071  1303,6917.871,95.437,540.615,538.857,0.0
52000.0,STARLINK-3653,PAYLOAD,2022-09-03 06:00:00,15.08832017,0.000118,53.2192,20.697,74.057,66.9702,0.0026250999999999,0.00041729,0.0,0 STARLINK-3653,1 52000U 22025AW  22246.25001157  .00041729  00000-0  26251-2 0  9996,2 52000  53.2192  20.6970 0001180  74.0570  66.9702 15.08832017 28700,6917.905,95.438,540.586,538.953,0.0
52000.0,STARLINK-3653,PAYLOAD,2022-09-03 14:00:01,15.08870955,0.0001339,53.2192,19.202,69.717,82.9138,-0.0042125,-0.00066764,0.0,0 STARLINK-3653,1 52000U 22025AW  22246.58334491 -.00066764  00000-0 -42125-2 0  9998,2 52000  53.2192  19.2020 0001339  69.7170  82.9138 15.08870955  1304,6917.786,95.436,540.577,538.724,0.0
52000.0,STARLINK-3653,PAYLOAD,2022-09-03 22:00:00,15.08839391,0.0001399,53.2189,17.7059,64.0139,100.2246,0.00066151,0.00010255,0.0,0 STARLINK-3653,1 52000U 22025AW  22246.91667824  .00010255  00000-0  66151-3 0  9992,2 52000  53.2189  17.7059 0001399  64.0139 100.2246 15.08839391 28801,6917.882,95.438,540.715,538.779,0.0
52000.0,STARLINK-3653,PAYLOAD,2022-09-04 14:00:01,15.08861761,0.000136,53.219,14.713,66.6434,120.8701,-0.0030256999999999,-0.00048148,0.0,0 STARLINK-3653,1 52000U 22025AW  22247.58335648 -.00048148  00000-0 -30257-2 0  9993,2 52000  53.2190  14.7130 0001360  66.6434 120.8701 15.08861761  1300,6917.814,95.436,540.62,538.738,0.0
52000.0,STARLINK-3653,PAYLOAD,2022-09-04 20:00:01,15.08838882,0.0001394,53.219,13.5913,59.287,46.8815,0.00080234,0.00012504,0.0,0 STARLINK-3653,1 52000U 22025AW  22247.83334491  .00012504  00000-0  80234-3 0  9992,2 52000  53.2190  13.5913 0001394  59.2870  46.8815 15.08838882  1306,6917.884,95.438,540.7130000000002,538.784,0.0
52000.0,STARLINK-3653,PAYLOAD,2022-09-05 04:00:00,15.08818149,0.0001311,53.2192,12.093,68.4996,49.2791,0.0030892,0.0004919,0.0,0 STARLINK-3653,1 52000U 22025AW  22248.16667824  .00049190  00000-0  30892-2 0  9993,2 52000  53.2192  12.0930 0001311  68.4996  49.2791 15.08818149 28999,6917.946999999999,95.439,540.719,538.905,0.0
52000.0,STARLINK-3653,PAYLOAD,2022-09-05 14:00:01,15.08871116,0.0001448,53.2192,10.2239,64.3442,157.9193,-0.0037209,-0.00059071,0.0,0 STARLINK-3653,1 52000U 22025AW  22248.58334491 -.00059071  00000-0 -37209-2 0  9990,2 52000  53.2192  10.2239 0001448  64.3442 157.9193 15.08871116  1305,6917.785,95.436,540.6519999999998,538.649,0.0
52000.0,STARLINK-3653,PAYLOAD,2022-09-05 22:00:00,15.08846642,0.0001473,53.2193,8.7274,60.3475,173.5252,-0.0041387,-0.00065568,0.0,0 STARLINK-3653,1 52000U 22025AW  22248.91667824 -.00065568  00000-0 -41387-2 0  9996,2 52000  53.2193   8.7274 0001473  60.3475 173.5252 15.08846642 29101,6917.86,95.437,540.744,538.706,0.0
52000.0,STARLINK-3653,PAYLOAD,2022-09-06 12:00:00,15.088253699999996,0.0001529,53.2199,6.1085,66.5432,97.5625,-0.00091288,-0.00014781,0.0,0 STARLINK-3653,1 52000U 22025AW  22249.50001157 -.00014781  00000-0 -91288-3 0  9990,2 52000  53.2199   6.1085 0001529  66.5432  97.5625 15.08825370 29195,6917.925,95.438,540.8480000000002,538.732,0.0
52000.0,STARLINK-3653,PAYLOAD,2022-09-06 14:00:01,15.08818014,0.000157,53.2198,5.7349,63.4627,193.538,-4.9048e-05,-1.068e-05,0.0,0 STARLINK-3653,1 52000U 22025AW  22249.58334491 -.00001068  00000-0 -49048-4 0  9990,2 52000  53.2198   5.7349 0001570  63.4627 193.5380 15.08818014  1305,6917.948,95.439,540.899,538.726,0.0
52000.0,STARLINK-3653,PAYLOAD,2022-09-06 22:00:00,15.08849503,0.0001482,53.2199,4.2385,60.2783,208.2816,-0.0037481,-0.00059462,0.0,0 STARLINK-3653,1 52000U 22025AW  22249.91667824 -.00059462  00000-0 -37481-2 0  9993,2 52000  53.2199   4.2385 0001482  60.2783 208.2816 15.08849503  1305,6917.851,95.437,540.742,538.691,0.0
52000.0,STARLINK-3653,PAYLOAD,2022-09-07 12:00:00,15.08827064,0.0001419,53.2204,1.6199,63.1002,135.7071,-0.00092393,-0.00014957,0.0,0 STARLINK-3653,1 52000U 22025AW  22250.50001157 -.00014957  00000-0 -92393-3 0  9995,2 52000  53.2204   1.6199 0001419  63.1002 135.7071 15.08827064 29341,6917.92,95.438,540.7669999999998,538.803,0.0
52000.0,STARLINK-3653,PAYLOAD,2022-09-07 14:00:01,15.08820338,0.0001472,53.2203,1.2462,60.3115,231.3909,-0.00011966,-2.191e-05,0.0,0 STARLINK-3653,1 52000U 22025AW  22250.58334491 -.00002191  00000-0 -11966-3 0  9997,2 52000  53.2203   1.2462 0001472  60.3115 231.3909 15.08820338  1308,6917.94,95.439,540.8240000000002,538.7869999999998,0.0
52000.0,STARLINK-3653,PAYLOAD,2022-09-07 22:00:00,15.0884428,0.0001414,53.2202,359.7497,58.3014,244.9664,-0.0012772,-0.00020559,0.0,0 STARLINK-3653,1 52000U 22025AW  22250.91667824 -.00020559  00000-0 -12772-2 0  9996,2 52000  53.2202 359.7497 0001414  58.3014 244.9664 15.08844280  1307,6917.8669999999975,95.437,540.71,538.754,0.0
52000.0,STARLINK-3653,PAYLOAD,2022-09-08 06:00:00,15.08824764,0.0001328,53.2206,358.2521,67.3989,247.4655,0.0031264,0.00049799,0.0,0 STARLINK-3653,1 52000U 22025AW  22251.25001157  .00049799  00000-0  31264-2 0  9997,2 52000  53.2206 358.2521 0001328  67.3989 247.4655 15.08824764 29457,6917.927,95.439,540.711,538.873,0.0
52000.0,STARLINK-3653,PAYLOAD,2022-09-08 14:00:01,15.0885165,0.0001463,53.2206,356.7577,59.9202,266.5378,-0.000449,-7.429e-05,0.0,0 STARLINK-3653,1 52000U 22025AW  22251.58334491 -.00007429  00000-0 -44900-3 0  9991,2 52000  53.2206 356.7577 0001463  59.9202 266.5378 15.08851650  1308,6917.845,95.437,540.722,538.698,0.0
52000.0,STARLINK-3653,PAYLOAD,2022-09-08 22:00:00,15.08874653,0.000145,53.2203,355.2609,59.7108,278.3565,-0.0035396,-0.00056234,0.0,0 STARLINK-3653,1 52000U 22025AW  22251.91667824 -.00056234  00000-0 -35396-2 0  9993,2 52000  53.2203 355.2609 0001450  59.7108 278.3565 15.08874653 29558,6917.774,95.435,540.643,538.636,0.0
52000.0,STARLINK-3653,PAYLOAD,2022-09-09 14:00:01,15.08861934,0.0001492,53.2204,352.2692,61.3378,299.9413,-0.0016094999999999,-0.00025827,0.0,0 STARLINK-3653,1 52000U 22025AW  22252.58334491 -.00025827  00000-0 -16095-2 0  9997,2 52000  53.2204 352.2692 0001492  61.3378 299.9413 15.08861934 29652,6917.813,95.436,540.71,538.646,0.0
52000.0,STARLINK-3653,PAYLOAD,2022-09-09 22:00:00,15.08866957,0.0001421,53.2199,350.7723,60.2699,312.6176,-0.0052515,-0.00082964,0.0,0 STARLINK-3653,1 52000U 22025AW  22252.91667824 -.00082964  00000-0 -52515-2 0  9995,2 52000  53.2199 350.7723 0001421  60.2699 312.6176 15.08866957  1300,6917.7980000000025,95.436,540.646,538.68,0.0
52000.0,STARLINK-3653,PAYLOAD,2022-09-10 14:00:01,15.08824289,0.0001531999999999,53.2199,347.7809,62.0652,333.9988,0.0003348,5.042e-05,0.0,0 STARLINK-3653,1 52000U 22025AW  22253.58334491  .00005042  00000-0  33480-3 0  9991,2 52000  53.2199 347.7809 0001532  62.0652 333.9988 15.08824289 29807,6917.928000000001,95.439,540.8530000000002,538.734,0.0
52000.0,STARLINK-3653,PAYLOAD,2022-09-10 22:00:00,15.08854653,0.0001517,53.2195,346.2838,62.6431,344.9954,-0.0043518,-0.00068912,0.0,0 STARLINK-3653,1 52000U 22025AW  22253.91667824 -.00068912  00000-0 -43518-2 0  9996,2 52000  53.2195 346.2838 0001517  62.6431 344.9954 15.08854653  1301,6917.8359999999975,95.437,540.75,538.651,0.0
52000.0,STARLINK-3653,PAYLOAD,2022-09-11 14:00:01,15.08818297,0.0001539,53.2179,343.29,54.9019,15.9221,0.0018319,0.0002897,0.0,0 STARLINK-3653,1 52000U 22025AW  22254.58334491  .00028970  00000-0  18319-2 0  9990,2 52000  53.2179 343.2900 0001539  54.9019  15.9221 15.08818297  1306,6917.946999999999,95.439,540.876,538.747,0.0
52000.0,STARLINK-3653,PAYLOAD,2022-09-11 22:00:00,15.08837538,0.0001501,53.2174,341.7923,54.5585,27.8492,-0.00010823,-2.01e-05,0.0,0 STARLINK-3653,1 52000U 22025AW  22254.91667824 -.00002010  00000-0 -10823-3 0  9998,2 52000  53.2174 341.7923 0001501  54.5585  27.8492 15.08837538 30013,6917.888000000001,95.438,540.7909999999998,538.715,0.0
52000.0,STARLINK-3653,PAYLOAD,2022-09-12 06:00:00,15.08857636,0.000135,53.2192,340.298,64.4562,29.5697,-0.00030132,-5.083e-05,0.0,0 STARLINK-3653,1 52000U 22025AW  22255.25001157 -.00005083  00000-0 -30132-3 0  9995,2 52000  53.2192 340.2980 0001350  64.4562  29.5697 15.08857636 30069,6917.826,95.436,540.625,538.758,0.0
52000.0,STARLINK-3653,PAYLOAD,2022-09-12 14:00:01,15.08830472,0.0001475,53.2185,338.8024,53.2785,52.3533,-0.0020758,-0.00033164,0.0,0 STARLINK-3653,1 52000U 22025AW  22255.58334491 -.00033164  00000-0 -20758-2 0  9994,2 52000  53.2185 338.8024 0001475  53.2785  52.3533 15.08830472 30112,6917.91,95.438,540.795,538.754,0.0
